{"type": "FeatureCollection", "features": [ {"type": "Feature", "properties": {"norad_id": 34375, "name": "IRIDIUM 33 DEB", "group": "iridium-33-debris", "lat": 61.130277806099436, "lon": -172.91711598183235, "alt_km": 776.7310727575978, "timestamp": "2025-12-17T23:38:07.238629+00:00", "meta": {"OBJECT_NAME": "IRIDIUM 33 DEB", "OBJECT_ID": "1997-051FT", "EPOCH": "2025-12-17T13:26:35.352096", "MEAN_MOTION": 14.18001231, "ECCENTRICITY": 0.01035674, "INCLINATION": 86.4323, "RA_OF_ASC_NODE": 180.7567, "ARG_OF_PERICENTER": 111.645, "MEAN_ANOMALY": 304.0989, "EPHEMERIS_TYPE": 0, "CLASSIFICATION_TYPE": "U", "NORAD_CAT_ID": 34375, "ELEMENT_SET_NO": 999, "REV_AT_EPOCH": 86780, "BSTAR": 0.00036037752, "MEAN_MOTION_DOT": 7.98e-06, "MEAN_MOTION_DDOT": 0}, "tle": {"line1": "1 34375U 97051FT  25351.56013139  .00000798  00000+0  36038-3 0  9994", "line2": "2 34375  86.4323 180.7567 0103567 111.6450 304.0989 14.18001231867807"}}, "geometry": {"type": "Point", "coordinates": [-172.91711598183235, 61.130277806099436]}}, {"type": "Feature", "properties": {"norad_id": 34376, "name": "IRIDIUM 33 DEB", "group": "iridium-33-debris", "lat": -16.07476177412486, "lon": -174.74876938902142, "alt_km": 676.1335391054672, "timestamp": "2025-12-17T23:38:07.238639+00:00", "meta": {"OBJECT_NAME": "IRIDIUM 33 DEB", "OBJECT_ID": "1997-051FU", "EPOCH": "2025-12-17T11:15:00.720576", "MEAN_MOTION": 14.6263273, "ECCENTRICITY": 0.00277539, "INCLINATION": 86.2981, "RA_OF_ASC_NODE": 4.4142, "ARG_OF_PERICENTER": 150.9794, "MEAN_ANOMALY": 209.2968, "EPHEMERIS_TYPE": 0, "CLASSIFICATION_TYPE": "U", "NORAD_CAT_ID": 34376, "ELEMENT_SET_NO": 999, "REV_AT_EPOCH": 88076, "BSTAR": 0.0010721746, "MEAN_MOTION_DOT": 5.502e-05, "MEAN_MOTION_DDOT": 0}, "tle": {"line1": "1 34376U 97051FU  25351.46875834  .00005502  00000+0  10722-2 0  9991", "line2": "2 34376  86.2981   4.4142 0027753 150.9794 209.2968 14.62632730880762"}}, "geometry": {"type": "Point", "coordinates": [-174.74876938902142, -16.07476177412486]}}, {"type": "Feature", "properties": {"norad_id": 34486, "name": "IRIDIUM 33 DEB", "group": "iridium-33-debris", "lat": -39.55838896639213, "lon": 6.6171008834167, "alt_km": 592.7920248357805, "timestamp": "2025-12-17T23:38:07.238649+00:00", "meta": {"OBJECT_NAME": "IRIDIUM 33 DEB", "OBJECT_ID": "1997-051GB", "EPOCH": "2025-12-17T01:34:32.789856", "MEAN_MOTION": 14.95995352, "ECCENTRICITY": 0.00138977, "INCLINATION": 86.393, "RA_OF_ASC_NODE": 10.0283, "ARG_OF_PERICENTER": 100.1337, "MEAN_ANOMALY": 313.5239, "EPHEMERIS_TYPE": 0, "CLASSIFICATION_TYPE": "U", "NORAD_CAT_ID": 34486, "ELEMENT_SET_NO": 999, "REV_AT_EPOCH": 89051, "BSTAR": 0.0017072639, "MEAN_MOTION_DOT": 0.00019234, "MEAN_MOTION_DDOT": 0}, "tle": {"line1": "1 34486U 97051GB  25351.06565729  .00019234  00000+0  17073-2 0  9991", "line2": "2 34486  86.3930  10.0283 0013897 100.1337 313.5239 14.95995352890514"}}, "geometry": {"type": "Point", "coordinates": [6.6171008834167, -39.55838896639213]}}, {"type": "Feature", "properties": {"norad_id": 34487, "name": "IRIDIUM 33 DEB", "group": "iridium-33-debris", "lat": 61.581229845248956, "lon": 16.906352275677687, "alt_km": 726.7859887150444, "timestamp": "2025-12-17T23:38:07.238660+00:00", "meta": {"OBJECT_NAME": "IRIDIUM 33 DEB", "OBJECT_ID": "1997-051GC", "EPOCH": "2025-12-17T08:26:40.670304", "MEAN_MOTION": 14.43222071, "ECCENTRICITY": 0.00330822, "INCLINATION": 86.3432, "RA_OF_ASC_NODE": 10.3915, "ARG_OF_PERICENTER": 114.0104, "MEAN_ANOMALY": 261.6876, "EPHEMERIS_TYPE": 0, "CLASSIFICATION_TYPE": "U", "NORAD_CAT_ID": 34487, "ELEMENT_SET_NO": 999, "REV_AT_EPOCH": 88315, "BSTAR": 0.00016017609, "MEAN_MOTION_DOT": 5.62e-06, "MEAN_MOTION_DDOT": 0}, "tle": {"line1": "1 34487U 97051GC  25351.35185961  .00000562  00000+0  16018-3 0  9993", "line2": "2 34487  86.3432  10.3915 0033082 114.0104 261.6876 14.43222071883157"}}, "geometry": {"type": "Point", "coordinates": [16.906352275677687, 61.581229845248956]}}, {"type": "Feature", "properties": {"norad_id": 34488, "name": "IRIDIUM 33 DEB", "group": "iridium-33-debris", "lat": -48.187203336792784, "lon": 127.33591936581622, "alt_km": 488.7348101979878, "timestamp": "2025-12-17T23:38:07.238670+00:00", "meta": {"OBJECT_NAME": "IRIDIUM 33 DEB", "OBJECT_ID": "1997-051GD", "EPOCH": "2025-12-17T06:57:02.777472", "MEAN_MOTION": 15.30547446, "ECCENTRICITY": 0.00117976, "INCLINATION": 86.3226, "RA_OF_ASC_NODE": 303.5578, "ARG_OF_PERICENTER": 43.8591, "MEAN_ANOMALY": 316.3592, "EPHEMERIS_TYPE": 0, "CLASSIFICATION_TYPE": "U", "NORAD_CAT_ID": 34488, "ELEMENT_SET_NO": 999, "REV_AT_EPOCH": 89309, "BSTAR": 0.0036319963, "MEAN_MOTION_DOT": 0.00108809, "MEAN_MOTION_DDOT": 0}, "tle": {"line1": "1 34488U 97051GD  25351.28961548  .00108809  00000+0  36320-2 0  9999", "line2": "2 34488  86.3226 303.5578 0011797  43.8591 316.3592 15.30547446893099"}}, "geometry": {"type": "Point", "coordinates": [127.33591936581622, -48.187203336792784]}}, {"type": "Feature", "properties": {"norad_id": 34492, "name": "IRIDIUM 33 DEB", "group": "iridium-33-debris", "lat": -1.9473777115248525, "lon": 152.62896668939825, "alt_km": 703.0981159823477, "timestamp": "2025-12-17T23:38:07.238680+00:00", "meta": {"OBJECT_NAME": "IRIDIUM 33 DEB", "OBJECT_ID": "1997-051GH", "EPOCH": "2025-12-17T10:01:30.958752", "MEAN_MOTION": 14.25820052, "ECCENTRICITY": 0.01887417, "INCLINATION": 86.4709, "RA_OF_ASC_NODE": 332.7379, "ARG_OF_PERICENTER": 222.99, "MEAN_ANOMALY": 291.1876, "EPHEMERIS_TYPE": 0, "CLASSIFICATION_TYPE": "U", "NORAD_CAT_ID": 34492, "ELEMENT_SET_NO": 999, "REV_AT_EPOCH": 85125, "BSTAR": 0.0026623829, "MEAN_MOTION_DOT": 7.653e-05, "MEAN_MOTION_DDOT": 0}, "tle": {"line1": "1 34492U 97051GH  25351.41771943  .00007653  00000+0  26624-2 0  9998", "line2": "2 34492  86.4709 332.7379 0188741 222.9900 291.1876 14.25820052851259"}}, "geometry": {"type": "Point", "coordinates": [152.62896668939825, -1.9473777115248525]}}, {"type": "Feature", "properties": {"norad_id": 34497, "name": "IRIDIUM 33 DEB", "group": "iridium-33-debris", "lat": 84.63932574569169, "lon": -173.76943077796338, "alt_km": 829.7283383559206, "timestamp": "2025-12-17T23:38:07.238691+00:00", "meta": {"OBJECT_NAME": "IRIDIUM 33 DEB", "OBJECT_ID": "1997-051GN", "EPOCH": "2025-12-17T03:08:55.431168", "MEAN_MOTION": 14.27466944, "ECCENTRICITY": 0.00783935, "INCLINATION": 86.2776, "RA_OF_ASC_NODE": 50.5255, "ARG_OF_PERICENTER": 325.2026, "MEAN_ANOMALY": 64.1256, "EPHEMERIS_TYPE": 0, "CLASSIFICATION_TYPE": "U", "NORAD_CAT_ID": 34497, "ELEMENT_SET_NO": 999, "REV_AT_EPOCH": 86946, "BSTAR": 0.00048733153, "MEAN_MOTION_DOT": 1.254e-05, "MEAN_MOTION_DDOT": 0}, "tle": {"line1": "1 34497U 97051GN  25351.13119712  .00001254  00000+0  48733-3 0  9999", "line2": "2 34497  86.2776  50.5255 0078393 325.2026  64.1256 14.27466944869461"}}, "geometry": {"type": "Point", "coordinates": [-173.76943077796338, 84.63932574569169]}}, {"type": "Feature", "properties": {"norad_id": 34508, "name": "IRIDIUM 33 DEB", "group": "iridium-33-debris", "lat": 81.448130993864, "lon": -104.546211080034, "alt_km": 731.0444165275712, "timestamp": "2025-12-17T23:38:07.238701+00:00", "meta": {"OBJECT_NAME": "IRIDIUM 33 DEB", "OBJECT_ID": "1997-051GZ", "EPOCH": "2025-12-17T08:09:19.662624", "MEAN_MOTION": 14.38463822, "ECCENTRICITY": 0.00664313, "INCLINATION": 86.3706, "RA_OF_ASC_NODE": 100.6932, "ARG_OF_PERICENTER": 158.1405, "MEAN_ANOMALY": 202.2652, "EPHEMERIS_TYPE": 0, "CLASSIFICATION_TYPE": "U", "NORAD_CAT_ID": 34508, "ELEMENT_SET_NO": 999, "REV_AT_EPOCH": 87375, "BSTAR": 0.00097769718, "MEAN_MOTION_DOT": 3.081e-05, "MEAN_MOTION_DDOT": 0}, "tle": {"line1": "1 34508U 97051GZ  25351.33981091  .00003081  00000+0  97770-3 0  9996", "line2": "2 34508  86.3706 100.6932 0066431 158.1405 202.2652 14.38463822873757"}}, "geometry": {"type": "Point", "coordinates": [-104.546211080034, 81.448130993864]}}, {"type": "Feature", "properties": {"norad_id": 34521, "name": "IRIDIUM 33 DEB", "group": "iridium-33-debris", "lat": 26.225085270451697, "lon": 30.026560764357395, "alt_km": 682.814432468871, "timestamp": "2025-12-17T23:38:07.238712+00:00", "meta": {"OBJECT_NAME": "IRIDIUM 33 DEB", "OBJECT_ID": "1997-051HN", "EPOCH": "2025-12-17T13:40:08.886720", "MEAN_MOTION": 14.63407494, "ECCENTRICITY": 0.00021431, "INCLINATION": 86.3797, "RA_OF_ASC_NODE": 28.4221, "ARG_OF_PERICENTER": 191.417, "MEAN_ANOMALY": 168.6994, "EPHEMERIS_TYPE": 0, "CLASSIFICATION_TYPE": "U", "NORAD_CAT_ID": 34521, "ELEMENT_SET_NO": 999, "REV_AT_EPOCH": 88543, "BSTAR": 0.00063465503, "MEAN_MOTION_DOT": 3.302e-05, "MEAN_MOTION_DDOT": 0}, "tle": {"line1": "1 34521U 97051HN  25351.56954730  .00003302  00000+0  63466-3 0  9997", "line2": "2 34521  86.3797  28.4221 0002143 191.4170 168.6994 14.63407494885432"}}, "geometry": {"type": "Point", "coordinates": [30.026560764357395, 26.225085270451697]}}, {"type": "Feature", "properties": {"norad_id": 34525, "name": "IRIDIUM 33 DEB", "group": "iridium-33-debris", "lat": 0.49622114049953403, "lon": -135.4263294918311, "alt_km": 752.4084600988572, "timestamp": "2025-12-17T23:38:07.238722+00:00", "meta": {"OBJECT_NAME": "IRIDIUM 33 DEB", "OBJECT_ID": "1997-051HS", "EPOCH": "2025-12-17T15:03:01.274112", "MEAN_MOTION": 14.4291718, "ECCENTRICITY": 0.00065505, "INCLINATION": 86.3725, "RA_OF_ASC_NODE": 44.7578, "ARG_OF_PERICENTER": 83.9317, "MEAN_ANOMALY": 38.4452, "EPHEMERIS_TYPE": 0, "CLASSIFICATION_TYPE": "U", "NORAD_CAT_ID": 34525, "ELEMENT_SET_NO": 999, "REV_AT_EPOCH": 88158, "BSTAR": 0.00028829346, "MEAN_MOTION_DOT": 9.83e-06, "MEAN_MOTION_DDOT": 0}, "tle": {"line1": "1 34525U 97051HS  25351.62709808  .00000983  00000+0  28829-3 0  9998", "line2": "2 34525  86.3725  44.7578 0006550  83.9317  38.4452 14.42917180881587"}}, "geometry": {"type": "Point", "coordinates": [-135.4263294918311, 0.49622114049953403]}}]}